{
  "type": "FeatureCollection",
  "features": [
    {
      "type": "Feature",
      "properties": {
        "norad_id": 43823,
        "name": "GEO-KOMPSAT-2A",
        "group": "weather",
        "lat": -0.04114584708860473,
        "lon": 7.725992483863338,
        "alt_km": 35786.600490084675,
        "timestamp": "2025-12-23T09:49:06.719437+00:00",
        "meta_object_name": "GEO-KOMPSAT-2A",
        "meta_object_id": "2018-100A",
        "meta_epoch": "2025-12-22T20:08:38.856768",
        "meta_mean_motion": 1.00269905,
        "meta_eccentricity": 3.586e-05,
        "meta_inclination": 0.0513,
        "meta_ra_of_asc_node": 125.1967,
        "meta_arg_of_pericenter": 328.8026,
        "meta_mean_anomaly": 68.0638,
        "meta_ephemeris_type": 0,
        "meta_classification_type": "U",
        "meta_norad_cat_id": 43823,
        "meta_element_set_no": 999,
        "meta_rev_at_epoch": 2586,
        "meta_bstar": 0,
        "meta_mean_motion_dot": -3.22e-06,
        "meta_mean_motion_ddot": 0,
        "tle_line1": "1 43823U 18100A   25356.83933862 -.00000322  00000+0  00000+0 0  9999",
        "tle_line2": "2 43823   0.0513 125.1967 0000358 328.8026  68.0638  1.00269905 25861"
      },
      "geometry": {
        "type": "Point",
        "coordinates": [
          7.725992483863338,
          -0.04114584708860473
        ]
      }
    },
    {
      "type": "Feature",
      "properties": {
        "norad_id": 44387,
        "name": "METEOR-M2 2",
        "group": "weather",
        "lat": -28.777528338161936,
        "lon": -17.795618345373462,
        "alt_km": 817.8021570383889,
        "timestamp": "2025-12-23T09:49:06.719448+00:00",
        "meta_object_name": "METEOR-M2 2",
        "meta_object_id": "2019-038A",
        "meta_epoch": "2025-12-22T22:09:11.700576",
        "meta_mean_motion": 14.24296032,
        "meta_eccentricity": 0.00017176,
        "meta_inclination": 98.8978,
        "meta_ra_of_asc_node": 336.7764,
        "meta_arg_of_pericenter": 129.1281,
        "meta_mean_anomaly": 231.005,
        "meta_ephemeris_type": 0,
        "meta_classification_type": "U",
        "meta_norad_cat_id": 44387,
        "meta_element_set_no": 999,
        "meta_rev_at_epoch": 33620,
        "meta_bstar": 0.00011393194,
        "meta_mean_motion_dot": 2.17e-06,
        "meta_mean_motion_ddot": 0,
        "tle_line1": "1 44387U 19038A   25356.92305209  .00000217  00000+0  11393-3 0  9997",
        "tle_line2": "2 44387  98.8978 336.7764 0001717 129.1281 231.0050 14.24296032336201"
      },
      "geometry": {
        "type": "Point",
        "coordinates": [
          -17.795618345373462,
          -28.777528338161936
        ]
      }
    },
    {
      "type": "Feature",
      "properties": {
        "norad_id": 47719,
        "name": "ARKTIKA-M 1",
        "group": "weather",
        "lat": 52.68128366075247,
        "lon": -138.92374951296676,
        "alt_km": 28788.051689892785,
        "timestamp": "2025-12-23T09:49:06.719463+00:00",
        "meta_object_name": "ARKTIKA-M 1",
        "meta_object_id": "2021-016A",
        "meta_epoch": "2025-12-22T01:06:25.193952",
        "meta_mean_motion": 2.00630804,
        "meta_eccentricity": 0.72089477,
        "meta_inclination": 63.1758,
        "meta_ra_of_asc_node": 82.7279,
        "meta_arg_of_pericenter": 269.1606,
        "meta_mean_anomaly": 15.5458,
        "meta_ephemeris_type": 0,
        "meta_classification_type": "U",
        "meta_norad_cat_id": 47719,
        "meta_element_set_no": 999,
        "meta_rev_at_epoch": 3523,
        "meta_bstar": 0,
        "meta_mean_motion_dot": -8.3e-07,
        "meta_mean_motion_ddot": 0,
        "tle_line1": "1 47719U 21016A   25356.04612493 -.00000083  00000+0  00000+0 0  9998",
        "tle_line2": "2 47719  63.1758  82.7279 7208947 269.1606  15.5458  2.00630804 35236"
      },
      "geometry": {
        "type": "Point",
        "coordinates": [
          -138.92374951296676,
          52.68128366075247
        ]
      }
    },
    {
      "type": "Feature",
      "properties": {
        "norad_id": 49008,
        "name": "FENGYUN 3E",
        "group": "weather",
        "lat": 58.0445870539506,
        "lon": -167.90752057010044,
        "alt_km": 819.9897998289307,
        "timestamp": "2025-12-23T09:49:06.719475+00:00",
        "meta_object_name": "FENGYUN 3E",
        "meta_object_id": "2021-062A",
        "meta_epoch": "2025-12-22T23:06:14.789952",
        "meta_mean_motion": 14.19880663,
        "meta_eccentricity": 8.557e-05,
        "meta_inclination": 98.7471,
        "meta_ra_of_asc_node": 357.3622,
        "meta_arg_of_pericenter": 199.3423,
        "meta_mean_anomaly": 160.7721,
        "meta_ephemeris_type": 0,
        "meta_classification_type": "U",
        "meta_norad_cat_id": 49008,
        "meta_element_set_no": 999,
        "meta_rev_at_epoch": 23157,
        "meta_bstar": -0.00010163514,
        "meta_mean_motion_dot": -2.6e-06,
        "meta_mean_motion_ddot": 0,
        "tle_line1": "1 49008U 21062A   25356.96267118 -.00000260  00000+0 -10164-3 0  9997",
        "tle_line2": "2 49008  98.7471 357.3622 0000855 199.3423 160.7721 14.19880663231574"
      },
      "geometry": {
        "type": "Point",
        "coordinates": [
          -167.90752057010044,
          58.0445870539506
        ]
      }
    },
    {
      "type": "Feature",
      "properties": {
        "norad_id": 51850,
        "name": "GOES 18",
        "group": "weather",
        "lat": 0.004816079018201302,
        "lon": 102.47328288615753,
        "alt_km": 35787.33358839142,
        "timestamp": "2025-12-23T09:49:06.719487+00:00",
        "meta_object_name": "GOES 18",
        "meta_object_id": "2022-021A",
        "meta_epoch": "2025-12-22T17:38:58.660224",
        "meta_mean_motion": 1.00270666,
        "meta_eccentricity": 3.328e-05,
        "meta_inclination": 0.0085,
        "meta_ra_of_asc_node": 110.9395,
        "meta_arg_of_pericenter": 215.7824,
        "meta_mean_anomaly": 252.5601,
        "meta_ephemeris_type": 0,
        "meta_classification_type": "U",
        "meta_norad_cat_id": 51850,
        "meta_element_set_no": 999,
        "meta_rev_at_epoch": 482,
        "meta_bstar": 0,
        "meta_mean_motion_dot": 1.18e-06,
        "meta_mean_motion_ddot": 0,
        "tle_line1": "1 51850U 22021A   25356.73540116  .00000118  00000+0  00000+0 0  9992",
        "tle_line2": "2 51850   0.0085 110.9395 0000332 215.7824 252.5601  1.00270666  4822"
      },
      "geometry": {
        "type": "Point",
        "coordinates": [
          102.47328288615753,
          0.004816079018201302
        ]
      }
    },
    {
      "type": "Feature",
      "properties": {
        "norad_id": 54234,
        "name": "NOAA 21 (JPSS-2)",
        "group": "weather",
        "lat": 64.85889715513015,
        "lon": 132.736907685406,
        "alt_km": 820.7626661948452,
        "timestamp": "2025-12-23T09:49:06.719511+00:00",
        "meta_object_name": "NOAA 21 (JPSS-2)",
        "meta_object_id": "2022-150A",
        "meta_epoch": "2025-12-22T21:26:37.382208",
        "meta_mean_motion": 14.1952682,
        "meta_eccentricity": 0.00017628,
        "meta_inclination": 98.7476,
        "meta_ra_of_asc_node": 293.0756,
        "meta_arg_of_pericenter": 17.3909,
        "meta_mean_anomaly": 342.7327,
        "meta_ephemeris_type": 0,
        "meta_classification_type": "U",
        "meta_norad_cat_id": 54234,
        "meta_element_set_no": 999,
        "meta_rev_at_epoch": 16153,
        "meta_bstar": 5.6441503e-05,
        "meta_mean_motion_dot": 7.5e-07,
        "meta_mean_motion_ddot": 0,
        "tle_line1": "1 54234U 22150A   25356.89348822  .00000075  00000+0  56442-4 0  9999",
        "tle_line2": "2 54234  98.7476 293.0756 0001762  17.3909 342.7327 14.19526820161530"
      },
      "geometry": {
        "type": "Point",
        "coordinates": [
          132.736907685406,
          64.85889715513015
        ]
      }
    },
    {
      "type": "Feature",
      "properties": {
        "norad_id": 54743,
        "name": "METEOSAT-12 (MTG-I1)",
        "group": "weather",
        "lat": -0.40717836848104705,
        "lon": -120.85601258922298,
        "alt_km": 35780.61169461646,
        "timestamp": "2025-12-23T09:49:06.719525+00:00",
        "meta_object_name": "METEOSAT-12 (MTG-I1)",
        "meta_object_id": "2022-170C",
        "meta_epoch": "2025-12-22T18:17:54.930912",
        "meta_mean_motion": 1.00270779,
        "meta_eccentricity": 0.00015239,
        "meta_inclination": 0.6971,
        "meta_ra_of_asc_node": 25.253,
        "meta_arg_of_pericenter": 240.2119,
        "meta_mean_anomaly": 100.261,
        "meta_ephemeris_type": 0,
        "meta_classification_type": "U",
        "meta_norad_cat_id": 54743,
        "meta_element_set_no": 999,
        "meta_rev_at_epoch": 1120,
        "meta_bstar": 0,
        "meta_mean_motion_dot": 1.4e-07,
        "meta_mean_motion_ddot": 0,
        "tle_line1": "1 54743U 22170C   25356.76244133  .00000014  00000+0  00000+0 0  9999",
        "tle_line2": "2 54743   0.6971  25.2530 0001523 240.2119 100.2610  1.00270779 11202"
      },
      "geometry": {
        "type": "Point",
        "coordinates": [
          -120.85601258922298,
          -0.40717836848104705
        ]
      }
    }
  ]
}